SL-16 R/B               
1 25400U 98043G   26025.79144146  .00000166  00000+0  88529-4 0  9994
2 25400  98.8186 338.8701 0010553 134.4728 225.7316 14.26038489432871
SL-16 R/B               
1 25407U 98045B   26025.62820284  .00000126  00000+0  87543-4 0  9990
2 25407  71.0108 272.1322 0005114  91.8544 268.3165 14.16186767421003
ISS (ZARYA)             
1 25544U 98067A   26025.59411361  .00015080  00000+0  28895-3 0  9993
2 25544  51.6319 285.3847 0011094  29.7203 330.4413 15.48178940549656
CZ-4B R/B               
1 25732U 99025C   26025.58011844  .00000111  00000+0  74408-4 0  9999
2 25732  98.6708  70.8665 0038161 108.5480  54.0627 14.18255986382057
OKEAN-O                 
1 25860U 99039A   26025.59391796  .00001372  00000+0  18718-3 0  9995
2 25860  97.9533  85.9034 0001885  98.4850 261.6576 14.80257328428012
SL-16 R/B               
1 25861U 99039B   26025.61458696  .00001094  00000+0  14567-3 0  9991
2 25861  98.0059  84.7552 0015674  41.4253 318.8145 14.81664601430484
DELTA 2 R/B             
1 25876U 99041E   26025.68220108  .00004054  00000+0  68906-3 0  9997
2 25876  51.7626 113.0158 0502886 221.3519 134.8303 14.11631341356953
HELIOS 1B               
1 25977U 99064A   26025.73272972  .00003420  00000+0  38358-3 0  9990
2 25977  98.1733 286.7057 0001316 132.1710 227.9617 14.87503640678872
TERRA                   
1 25994U 99068A   26025.77446453  .00000820  00000+0  17634-3 0  9999
2 25994  97.9683  80.8292 0001604 351.7350  74.5461 14.60963279388819
SL-16 R/B               
1 26070U 00006B   26025.84435938  .00000293  00000+0  17328-3 0  9997
2 26070  71.0008 187.9227 0018625 249.2027 110.7101 14.15814541342494
TITAN 4B R/B            
1 26474U 00047B   26025.82218133  .00006402  00000+0  40374-3 0  9999
2 26474  67.9891 161.0159 0036834  88.9860 271.5509 15.09178111386449
ENVISAT                 
1 27386U 02009A   26025.51269179  .00000268  00000+0  10060-3 0  9997
2 27386  98.3659 340.1579 0001228  91.7854  22.5153 14.39019036252962
