CCSDS_OMM_VERS = 2.0
CREATION_DATE  = 
ORIGINATOR     = 

OBJECT_NAME    = SL-16 R/B
OBJECT_ID      = 1998-043G
CENTER_NAME    = EARTH
REF_FRAME      = TEME
TIME_SYSTEM    = UTC
MEAN_ELEMENT_THEORY = SGP/SGP4

EPOCH          = 2026-01-25T18:59:40.542144
MEAN_MOTION    = 14.26038489
ECCENTRICITY   = .0010553
INCLINATION    = 98.8186
RA_OF_ASC_NODE = 338.8701
ARG_OF_PERICENTER = 134.4728
MEAN_ANOMALY   = 225.7316

EPHEMERIS_TYPE = 0
CLASSIFICATION_TYPE = U
NORAD_CAT_ID   = 25400
ELEMENT_SET_NO = 999
REV_AT_EPOCH   = 43287
BSTAR          = .88529E-4
MEAN_MOTION_DOT = .166E-5
MEAN_MOTION_DDOT = 0

CCSDS_OMM_VERS = 2.0
CREATION_DATE  = 
ORIGINATOR     = 

OBJECT_NAME    = SL-16 R/B
OBJECT_ID      = 1998-045B
CENTER_NAME    = EARTH
REF_FRAME      = TEME
TIME_SYSTEM    = UTC
MEAN_ELEMENT_THEORY = SGP/SGP4

EPOCH          = 2026-01-25T15:04:36.725376
MEAN_MOTION    = 14.16186767
ECCENTRICITY   = .0005114
INCLINATION    = 71.0108
RA_OF_ASC_NODE = 272.1322
ARG_OF_PERICENTER = 91.8544
MEAN_ANOMALY   = 268.3165

EPHEMERIS_TYPE = 0
CLASSIFICATION_TYPE = U
NORAD_CAT_ID   = 25407
ELEMENT_SET_NO = 999
REV_AT_EPOCH   = 42100
BSTAR          = .87543E-4
MEAN_MOTION_DOT = .126E-5
MEAN_MOTION_DDOT = 0

CCSDS_OMM_VERS = 2.0
CREATION_DATE  = 
ORIGINATOR     = 

OBJECT_NAME    = ISS (ZARYA)
OBJECT_ID      = 1998-067A
CENTER_NAME    = EARTH
REF_FRAME      = TEME
TIME_SYSTEM    = UTC
MEAN_ELEMENT_THEORY = SGP/SGP4

EPOCH          = 2026-01-25T14:15:31.415904
MEAN_MOTION    = 15.48178940
ECCENTRICITY   = .0011094
INCLINATION    = 51.6319
RA_OF_ASC_NODE = 285.3847
ARG_OF_PERICENTER = 29.7203
MEAN_ANOMALY   = 330.4413

EPHEMERIS_TYPE = 0
CLASSIFICATION_TYPE = U
NORAD_CAT_ID   = 25544
ELEMENT_SET_NO = 999
REV_AT_EPOCH   = 54965
BSTAR          = .28895E-3
MEAN_MOTION_DOT = .1508E-3
MEAN_MOTION_DDOT = 0

CCSDS_OMM_VERS = 2.0
CREATION_DATE  = 
ORIGINATOR     = 

OBJECT_NAME    = CZ-4B R/B
OBJECT_ID      = 1999-025C
CENTER_NAME    = EARTH
REF_FRAME      = TEME
TIME_SYSTEM    = UTC
MEAN_ELEMENT_THEORY = SGP/SGP4

EPOCH          = 2026-01-25T13:55:22.233216
MEAN_MOTION    = 14.18255986
ECCENTRICITY   = .0038161
INCLINATION    = 98.6708
RA_OF_ASC_NODE = 70.8665
ARG_OF_PERICENTER = 108.5480
MEAN_ANOMALY   = 54.0627

EPHEMERIS_TYPE = 0
CLASSIFICATION_TYPE = U
NORAD_CAT_ID   = 25732
ELEMENT_SET_NO = 999
REV_AT_EPOCH   = 38205
BSTAR          = .74408E-4
MEAN_MOTION_DOT = .111E-5
MEAN_MOTION_DDOT = 0

CCSDS_OMM_VERS = 2.0
CREATION_DATE  = 
ORIGINATOR     = 

OBJECT_NAME    = OKEAN-O
OBJECT_ID      = 1999-039A
CENTER_NAME    = EARTH
REF_FRAME      = TEME
TIME_SYSTEM    = UTC
MEAN_ELEMENT_THEORY = SGP/SGP4

EPOCH          = 2026-01-25T14:15:14.511744
MEAN_MOTION    = 14.80257328
ECCENTRICITY   = .0001885
INCLINATION    = 97.9533
RA_OF_ASC_NODE = 85.9034
ARG_OF_PERICENTER = 98.4850
MEAN_ANOMALY   = 261.6576

EPHEMERIS_TYPE = 0
CLASSIFICATION_TYPE = U
NORAD_CAT_ID   = 25860
ELEMENT_SET_NO = 999
REV_AT_EPOCH   = 42801
BSTAR          = .18718E-3
MEAN_MOTION_DOT = .1372E-4
MEAN_MOTION_DDOT = 0

CCSDS_OMM_VERS = 2.0
CREATION_DATE  = 
ORIGINATOR     = 

OBJECT_NAME    = SL-16 R/B
OBJECT_ID      = 1999-039B
CENTER_NAME    = EARTH
REF_FRAME      = TEME
TIME_SYSTEM    = UTC
MEAN_ELEMENT_THEORY = SGP/SGP4

EPOCH          = 2026-01-25T14:45:00.313344
MEAN_MOTION    = 14.81664601
ECCENTRICITY   = .0015674
INCLINATION    = 98.0059
RA_OF_ASC_NODE = 84.7552
ARG_OF_PERICENTER = 41.4253
MEAN_ANOMALY   = 318.8145

EPHEMERIS_TYPE = 0
CLASSIFICATION_TYPE = U
NORAD_CAT_ID   = 25861
ELEMENT_SET_NO = 999
REV_AT_EPOCH   = 43048
BSTAR          = .14567E-3
MEAN_MOTION_DOT = .1094E-4
MEAN_MOTION_DDOT = 0

CCSDS_OMM_VERS = 2.0
CREATION_DATE  = 
ORIGINATOR     = 

OBJECT_NAME    = DELTA 2 R/B
OBJECT_ID      = 1999-041E
CENTER_NAME    = EARTH
REF_FRAME      = TEME
TIME_SYSTEM    = UTC
MEAN_ELEMENT_THEORY = SGP/SGP4

EPOCH          = 2026-01-25T16:22:22.173312
MEAN_MOTION    = 14.11631341
ECCENTRICITY   = .0502886
INCLINATION    = 51.7626
RA_OF_ASC_NODE = 113.0158
ARG_OF_PERICENTER = 221.3519
MEAN_ANOMALY   = 134.8303

EPHEMERIS_TYPE = 0
CLASSIFICATION_TYPE = U
NORAD_CAT_ID   = 25876
ELEMENT_SET_NO = 999
REV_AT_EPOCH   = 35695
BSTAR          = .68906E-3
MEAN_MOTION_DOT = .4054E-4
MEAN_MOTION_DDOT = 0

CCSDS_OMM_VERS = 2.0
CREATION_DATE  = 
ORIGINATOR     = 

OBJECT_NAME    = HELIOS 1B
OBJECT_ID      = 1999-064A
CENTER_NAME    = EARTH
REF_FRAME      = TEME
TIME_SYSTEM    = UTC
MEAN_ELEMENT_THEORY = SGP/SGP4

EPOCH          = 2026-01-25T17:35:07.847808
MEAN_MOTION    = 14.87503640
ECCENTRICITY   = .0001316
INCLINATION    = 98.1733
RA_OF_ASC_NODE = 286.7057
ARG_OF_PERICENTER = 132.1710
MEAN_ANOMALY   = 227.9617

EPHEMERIS_TYPE = 0
CLASSIFICATION_TYPE = U
NORAD_CAT_ID   = 25977
ELEMENT_SET_NO = 999
REV_AT_EPOCH   = 67887
BSTAR          = .38358E-3
MEAN_MOTION_DOT = .342E-4
MEAN_MOTION_DDOT = 0

CCSDS_OMM_VERS = 2.0
CREATION_DATE  = 
ORIGINATOR     = 

OBJECT_NAME    = TERRA
OBJECT_ID      = 1999-068A
CENTER_NAME    = EARTH
REF_FRAME      = TEME
TIME_SYSTEM    = UTC
MEAN_ELEMENT_THEORY = SGP/SGP4

EPOCH          = 2026-01-25T18:35:13.735392
MEAN_MOTION    = 14.60963279
ECCENTRICITY   = .0001604
INCLINATION    = 97.9683
RA_OF_ASC_NODE = 80.8292
ARG_OF_PERICENTER = 351.7350
MEAN_ANOMALY   = 74.5461

EPHEMERIS_TYPE = 0
CLASSIFICATION_TYPE = U
NORAD_CAT_ID   = 25994
ELEMENT_SET_NO = 999
REV_AT_EPOCH   = 38881
BSTAR          = .17634E-3
MEAN_MOTION_DOT = .82E-5
MEAN_MOTION_DDOT = 0

CCSDS_OMM_VERS = 2.0
CREATION_DATE  = 
ORIGINATOR     = 

OBJECT_NAME    = SL-16 R/B
OBJECT_ID      = 2000-006B
CENTER_NAME    = EARTH
REF_FRAME      = TEME
TIME_SYSTEM    = UTC
MEAN_ELEMENT_THEORY = SGP/SGP4

EPOCH          = 2026-01-25T20:15:52.650432
MEAN_MOTION    = 14.15814541
ECCENTRICITY   = .0018625
INCLINATION    = 71.0008
RA_OF_ASC_NODE = 187.9227
ARG_OF_PERICENTER = 249.2027
MEAN_ANOMALY   = 110.7101

EPHEMERIS_TYPE = 0
CLASSIFICATION_TYPE = U
NORAD_CAT_ID   = 26070
ELEMENT_SET_NO = 999
REV_AT_EPOCH   = 34249
BSTAR          = .17328E-3
MEAN_MOTION_DOT = .293E-5
MEAN_MOTION_DDOT = 0

CCSDS_OMM_VERS = 2.0
CREATION_DATE  = 
ORIGINATOR     = 

OBJECT_NAME    = TITAN 4B R/B
OBJECT_ID      = 2000-047B
CENTER_NAME    = EARTH
REF_FRAME      = TEME
TIME_SYSTEM    = UTC
MEAN_ELEMENT_THEORY = SGP/SGP4

EPOCH          = 2026-01-25T19:43:56.466912
MEAN_MOTION    = 15.09178111
ECCENTRICITY   = .0036834
INCLINATION    = 67.9891
RA_OF_ASC_NODE = 161.0159
ARG_OF_PERICENTER = 88.9860
MEAN_ANOMALY   = 271.5509

EPHEMERIS_TYPE = 0
CLASSIFICATION_TYPE = U
NORAD_CAT_ID   = 26474
ELEMENT_SET_NO = 999
REV_AT_EPOCH   = 38644
BSTAR          = .40374E-3
MEAN_MOTION_DOT = .6402E-4
MEAN_MOTION_DDOT = 0

CCSDS_OMM_VERS = 2.0
CREATION_DATE  = 
ORIGINATOR     = 

OBJECT_NAME    = ENVISAT
OBJECT_ID      = 2002-009A
CENTER_NAME    = EARTH
REF_FRAME      = TEME
TIME_SYSTEM    = UTC
MEAN_ELEMENT_THEORY = SGP/SGP4

EPOCH          = 2026-01-25T12:18:16.570656
MEAN_MOTION    = 14.39019036
ECCENTRICITY   = .00012285
INCLINATION    = 98.3659
RA_OF_ASC_NODE = 340.1579
ARG_OF_PERICENTER = 91.7854
MEAN_ANOMALY   = 22.5153

EPHEMERIS_TYPE = 0
CLASSIFICATION_TYPE = U
NORAD_CAT_ID   = 27386
ELEMENT_SET_NO = 999
REV_AT_EPOCH   = 25296
BSTAR          = .10060086E-3
MEAN_MOTION_DOT = .268E-5
MEAN_MOTION_DDOT = 0

